[{"OBJECT_NAME":"ICEYE-X30","OBJECT_ID":"2023-084R","EPOCH":"2026-03-09T21:18:40.033440","MEAN_MOTION":15.72701856,"ECCENTRICITY":0.00049319,"INCLINATION":97.5707,"RA_OF_ASC_NODE":220.1726,"ARG_OF_PERICENTER":282.9335,"MEAN_ANOMALY":77.1377,"EPHEMERIS_TYPE":0,"CLASSIFICATION_TYPE":"U","NORAD_CAT_ID":56947,"ELEMENT_SET_NO":999,"REV_AT_EPOCH":15325,"BSTAR":0.00083938221,"MEAN_MOTION_DOT":0.00114026,"MEAN_MOTION_DDOT":0},{"OBJECT_NAME":"STARLINK-11606 [DTC]","OBJECT_ID":"2025-075M","EPOCH":"2026-03-09T06:01:36.699744","MEAN_MOTION":15.70968116,"ECCENTRICITY":7.236e-5,"INCLINATION":42.9987,"RA_OF_ASC_NODE":156.0837,"ARG_OF_PERICENTER":191.0571,"MEAN_ANOMALY":169.0281,"EPHEMERIS_TYPE":0,"CLASSIFICATION_TYPE":"U","NORAD_CAT_ID":63559,"ELEMENT_SET_NO":999,"REV_AT_EPOCH":5318,"BSTAR":0.0016934091,"MEAN_MOTION_DOT":0.00224001,"MEAN_MOTION_DDOT":0}]
